#aV2009  5  9  0  0   .00000000      96 DD+AD WGS84 FIT  NGA
## 1530 518400.00000000   900.00000000 54960  .0000000000000
+   31     2  3  4  5  6  7  8  9 10 11 12 13 14 15 16 17 18
+         19 20 21 22 23 24 25 26 27 28 29 30 31 32  0  0  0
+          0  0  0  0  0  0  0  0  0  0  0  0  0  0  0  0  0
+          0  0  0  0  0  0  0  0  0  0  0  0  0  0  0  0  0
+          0  0  0  0  0  0  0  0  0  0  0  0  0  0  0  0  0
++         0  0  0  0  0  0  0  0  0  0  0  0  0  0  0  0  0
++         0  0  0  0  0  0  0  0  0  0  0  0  0  0  0  0  0
++         0  0  0  0  0  0  0  0  0  0  0  0  0  0  0  0  0
++         0  0  0  0  0  0  0  0  0  0  0  0  0  0  0  0  0
++         0  0  0  0  0  0  0  0  0  0  0  0  0  0  0  0  0
%c cc cc ccc ccc cccc cccc cccc cccc ccccc ccccc ccccc ccccc
%c cc cc ccc ccc cccc cccc cccc cccc ccccc ccccc ccccc ccccc
%f  0.0000000  0.000000000  0.00000000000  0.000000000000000
%f  0.0000000  0.000000000  0.00000000000  0.000000000000000
%i    0    0    0    0      0      0      0      0         0
%i    0    0    0    0      0      0      0      0         0
/*      NGA, ST. LOUIS,MO.                                  
/*   EPHEMERIS COMPUTED FROM  3 DAYS OF DATA                
/* CCCCCCCCCCCCCCCCCCCCCCCCCCCCCCCCCCCCCCCCCCCCCCCCCCCCCCCCC
/* CCCCCCCCCCCCCCCCCCCCCCCCCCCCCCCCCCCCCCCCCCCCCCCCCCCCCCCCC
*  2009  5  9  9 45   .00000000                                                 
P  2  -1838.944735 -17143.097727  20203.793646    153.977989                    
V  2  23756.392147  10208.793981  10363.170684       .004432                    
P  3  -1432.670634  19314.393100 -18335.403134    390.605541                    
V  3 -18840.407705  13210.875522  16011.299071       .052136                    
P  4  12249.441736 -10866.118553  20838.721912    -83.835306                    
V  4  23688.086827  12490.419769  -7001.097830      -.153108                    
P  5 -14193.601787 -15643.784266  15870.490150    -69.416103                    
V  5  -1186.358534 -20790.271286 -21031.443459      -.186400                    
P  6  -7807.104664  19983.618628 -15429.532066    115.355725                    
V  6 -17674.851252   9804.549955  21428.002534       .157252                    
P  7  24599.810614   5500.551664  -8576.999784     19.157632                    
V  7   8696.451399   6837.836967  29283.396352      -.006189                    
P  8  18646.608173  -3652.625731 -18819.753907   -202.219743                    
V  8  20103.773986  12274.585666  17099.385970      -.017675                    
P  9 -20060.576780 -15495.913272  -8741.823959     54.940939                    
V  9  10048.075656   2404.905719 -29449.774171       .019026                    
P 10  -1758.558263 -26305.752290   -870.334030    -15.729186                    
V 10   3137.014282  -1059.196975  31902.887848      -.006139                    
P 11  22607.623820  12111.816812  -7759.944937     -1.891817                    
V 11 -10383.952569   1868.433555 -27718.426514      -.014062                    
P 12 -12138.183843 -17557.627433  15955.081858   -283.619441                    
V 12    449.028268 -20133.582797 -21794.269279       .051702                    
P 13  22793.745674  -3657.516515  13002.295141    296.635471                    
V 13 -13618.662374   9723.583939  26347.185278       .009390                    
P 14 -21295.900583  15494.484183   3033.958604   -113.437266                    
V 14  -4212.672799    236.287003 -32124.010070       .059117                    
P 15  -5122.717812 -14823.001723 -21406.525334   -289.806768                    
V 15  22705.181600 -15089.053137   5069.320174      -.038771                    
P 16  -1720.671961  26042.140313   4230.522342     52.600916                    
V 16  -2980.006486  -5196.135376  31466.688645      -.032939                    
P 17  21724.080885 -15055.572038   1210.049343     58.116225                    
V 17   2872.476861   1746.838225 -31798.566944       .017909                    
P 18 -15295.672004   3275.846729 -21215.211266    -58.488536                    
V 18  -1581.110191 -27523.551801  -3447.071778       .033011                    
P 19   6932.853878  13608.794805 -21658.400594     26.194579                    
V 19 -24146.299136  13530.122128   1014.750958      -.010625                    
P 20  13598.666694  15443.757111  16686.302371     83.131444                    
V 20   -173.163656  21579.232714 -19637.355144      -.010412                    
P 21 -24061.430190  -3001.170478 -11281.371777     14.959178                    
V 21 -11700.892439  -9043.053234  26128.918929      -.020545                    
P 22 -12299.850228  15504.772900 -17525.354394    200.014435                    
V 22  -2793.373834 -22573.137055 -17921.376425      -.007255                    
P 23  16456.665782   5615.121547  20105.816499    389.920861                    
V 23 -20803.596415  14833.753945  12578.429955       .001729                    
P 24 -22878.352552 -13200.006729    615.698884    187.488873                    
V 24   2176.183197  -2620.605043  31699.002383       .029505                    
P 25  24846.110072   9033.599295   -516.872115    402.932149                    
V 25     44.265618   2918.160212  32075.999055       .199529                    
P 26 -13671.262162  -8437.688774 -21814.640193     60.234759                    
V 26  22444.601904 -13512.489299  -8558.580486       .014048                    
P 27 -14455.540254 -16564.197949 -14230.804087     47.579486                    
V 27  18483.506378   5588.072533 -24198.720073       .032120                    
P 28  12616.753887 -12894.168158 -18951.910894    -24.649500                    
V 28   2479.877308  25002.371772 -15328.896952      -.002328                    
P 29 -22256.324219   2171.984619  14408.843223     18.254355                    
V 29  14158.189511 -11526.822102  23822.437567       .038426                    
P 30 -15350.901866  -5941.559686  20495.736082    144.989949                    
V 30  -2043.979950 -26812.132470  -9059.150785       .027448                    
P 31  -9555.128946  11952.943284  21928.730295    -59.790138                    
V 31 -24427.600488 -12181.503544  -3904.262716      -.008723                    
P 32   7891.359218  22715.922065  11945.343457    263.956832                    
V 32  -2243.076938  14422.897565 -26596.374419      -.051577                    
EOF
